ARCSTONE                
1 64540U 25135N   26068.88991918  .00026427  00000+0  94900-3 0  9995
2 64540  97.4495 185.9194 0004120 166.7863 193.3485 15.28638458 39847
STARLINK-36217          
1 67120U 25299U   26068.30398888  .00029489  00000+0  10761-2 0  9990
2 67120  42.9979 171.4782 0002801 290.6433  69.4118 15.27601297 13054
