[{"OBJECT_NAME":"ARCSTONE","OBJECT_ID":"2025-135N","EPOCH":"2026-03-09T21:21:29.017152","MEAN_MOTION":15.28638458,"ECCENTRICITY":0.00041199,"INCLINATION":97.4495,"RA_OF_ASC_NODE":185.9194,"ARG_OF_PERICENTER":166.7863,"MEAN_ANOMALY":193.3485,"EPHEMERIS_TYPE":0,"CLASSIFICATION_TYPE":"U","NORAD_CAT_ID":64540,"ELEMENT_SET_NO":999,"REV_AT_EPOCH":3984,"BSTAR":0.00094899777,"MEAN_MOTION_DOT":0.00026427,"MEAN_MOTION_DDOT":0},{"OBJECT_NAME":"STARLINK-36217","OBJECT_ID":"2025-299U","EPOCH":"2026-03-09T07:17:44.639232","MEAN_MOTION":15.27601297,"ECCENTRICITY":0.00028018,"INCLINATION":42.9979,"RA_OF_ASC_NODE":171.4782,"ARG_OF_PERICENTER":290.6433,"MEAN_ANOMALY":69.4118,"EPHEMERIS_TYPE":0,"CLASSIFICATION_TYPE":"U","NORAD_CAT_ID":67120,"ELEMENT_SET_NO":999,"REV_AT_EPOCH":1305,"BSTAR":0.0010760864,"MEAN_MOTION_DOT":0.00029489,"MEAN_MOTION_DDOT":0}]
